0 SNAP 1
1 26386U 00033C   13282.75446587  .00000467  00000-0  93180-4 0   356
2 26386 098.1770 348.1671 0010141 286.2072 188.8920 14.66482541709949
0 SNAP 1
1 26386U 00033C   13284.10812976  .00000642  00000-0  12467-3 0   360
2 26386 098.1769 349.5160 0010105 281.5070 135.7708 14.66484043710149
0 SNAP 1
1 26386U 00033C   13286.14974921  .00000550  00000-0  10806-3 0   380
2 26386 098.1766 351.5505 0010115 274.0945 115.1569 14.66486193710449
0 SNAP 1
1 26386U 00033C   13287.24373350  .00000650  00000-0  12610-3 0   398
2 26386 098.1764 352.6408 0010175 270.2934 131.0345 14.66487377710605
0 SNAP 1
1 26386U 00033C   13289.15630957  .00000762  00000-0  14634-3 0   403
2 26386 098.1758 354.5468 0010237 263.6371 148.8364 14.66492458710888
0 SNAP 1
1 26386U 00033C   13290.18037884  .00000720  00000-0  13884-3 0   419
2 26386 098.1755 355.5672 0010279 260.0153 155.6709 14.66493926711036
0 SNAP 1
1 26386U 00033C   13291.26912388  .00000752  00000-0  14452-3 0   428
2 26386 098.1753 356.6520 0010323 256.1995 143.9508 14.66495644711191
0 SNAP 1
1 26386U 00033C   13292.43345263  .00000801  00000-0  15344-3 0   437
2 26386 098.1751 357.8120 0010378 252.1759 171.2447 14.66497212711360
0 SNAP 1
1 26386U 00033C   13293.74671743  .00000866  00000-0  16508-3 0   442
2 26386 098.1749 359.1203 0010442 247.6625 264.8565 14.66499421711552
0 SNAP 1
1 26386U 00033C   13294.76972451  .00000919  00000-0  17454-3 0   456
2 26386 098.1750 000.1396 0010508 244.2918 265.8645 14.66501754711701
0 SNAP 1
1 26386U 00033C   13295.79117374  .00000918  00000-0  17446-3 0   466
2 26386 098.1749 001.1571 0010544 240.6692 258.9118 14.66503250711851
